NORAD_CAT_ID,OBJECT_NAME,OBJECT_TYPE,EPOCH,MEAN_MOTION,ECCENTRICITY,INCLINATION,RA_OF_ASC_NODE,ARG_OF_PERICENTER,MEAN_ANOMALY,BSTAR,MEAN_MOTION_DOT,MEAN_MOTION_DDOT,TLE_LINE0,TLE_LINE1,TLE_LINE2,SEMIMAJOR_AXIS,PERIOD,APOGEE,PERIGEE,DECAYED
52634.0,STARLINK-3974,PAYLOAD,2022-08-30 14:00:01,15.08809932,0.0001807,53.217,287.1574,46.9623,231.5535,0.0028785,0.00045784,0.0,0 STARLINK-3974,1 52634U 22052AN  22242.58334491  .00045784  00000-0  28785-2 0  9990,2 52634  53.2170 287.1574 0001807  46.9623 231.5535 15.08809932  1303,6917.972,95.439,541.087,538.587,0.0
52634.0,STARLINK-3974,PAYLOAD,2022-08-30 22:00:00,15.08824628,0.0001663,53.2173,285.6591,51.5238,238.5817,0.0014655999999999,0.00023104,0.0,0 STARLINK-3974,1 52634U 22052AN  22242.91667824  .00023104  00000-0  14656-2 0  9990,2 52634  53.2173 285.6591 0001663  51.5238 238.5817 15.08824628  1301,6917.927,95.439,540.943,538.6419999999998,0.0
52634.0,STARLINK-3974,PAYLOAD,2022-08-31 14:00:01,15.08830506,0.000184,53.2173,282.6679,46.2019,267.0937,0.0019737,0.00031255,0.0,0 STARLINK-3974,1 52634U 22052AN  22243.58334491  .00031255  00000-0  19737-2 0  9996,2 52634  53.2173 282.6679 0001840  46.2019 267.0937 15.08830506  1302,6917.909000000002,95.438,541.047,538.502,0.0
52634.0,STARLINK-3974,PAYLOAD,2022-08-31 22:00:00,15.08823394,0.0001636,53.2177,281.1696,50.4194,274.4862,0.00019702,2.848e-05,0.0,0 STARLINK-3974,1 52634U 22052AN  22243.91667824  .00002848  00000-0  19702-3 0  9991,2 52634  53.2177 281.1696 0001636  50.4194 274.4862 15.08823394  1309,6917.931,95.439,540.928,538.664,0.0
52634.0,STARLINK-3974,PAYLOAD,2022-09-01 04:00:01,15.08835121,0.000164,53.2179,280.0475,52.0954,191.5507,-0.0003964,-6.59e-05,0.0,0 STARLINK-3974,1 52634U 22052AN  22244.16668981 -.00006590  00000-0 -39640-3 0  9997,2 52634  53.2179 280.0475 0001640  52.0954 191.5507 15.08835121 17292,6917.895,95.438,540.895,538.626,0.0
52634.0,STARLINK-3974,PAYLOAD,2022-09-01 14:00:01,15.08815017,0.0001797,53.2175,278.1784,43.8881,304.2419,0.0021335,0.00033807,0.0,0 STARLINK-3974,1 52634U 22052AN  22244.58335648  .00033807  00000-0  21335-2 0  9994,2 52634  53.2175 278.1784 0001797  43.8881 304.2419 15.08815017  1301,6917.956999999999,95.439,541.065,538.5790000000002,0.0
52634.0,STARLINK-3974,PAYLOAD,2022-09-01 22:00:00,15.08812111,0.000161,53.2178,276.6803,50.3243,309.3322,0.0023526999999999,0.00037325,0.0,0 STARLINK-3974,1 52634U 22052AN  22244.91667824  .00037325  00000-0  23527-2 0  9999,2 52634  53.2178 276.6803 0001610  50.3243 309.3322 15.08812111  1309,6917.965999999999,95.439,540.944,538.717,0.0
52634.0,STARLINK-3974,PAYLOAD,2022-09-02 12:00:02,15.08817205,0.000183,53.2178,274.0636,45.6788,244.3188,0.002419,0.00038397,0.0,0 STARLINK-3974,1 52634U 22052AN  22245.50002315  .00038397  00000-0  24190-2 0  9990,2 52634  53.2178 274.0636 0001830  45.6788 244.3188 15.08817205 17494,6917.95,95.439,541.081,538.549,0.0
52634.0,STARLINK-3974,PAYLOAD,2022-09-02 14:00:01,15.08826922,0.0001797,53.2175,273.6893,44.2427,338.5853,0.0015873,0.00025055,0.0,0 STARLINK-3974,1 52634U 22052AN  22245.58334491  .00025055  00000-0  15873-2 0  9996,2 52634  53.2175 273.6893 0001797  44.2427 338.5853 15.08826922  1302,6917.92,95.438,541.029,538.5419999999998,0.0
52634.0,STARLINK-3974,PAYLOAD,2022-09-02 22:00:01,15.08817833,0.0001606,53.2176,272.1912,51.2613,343.2296,0.002641,0.00041969,0.0,0 STARLINK-3974,1 52634U 22052AN  22245.91668981  .00041969  00000-0  26410-2 0  9998,2 52634  53.2176 272.1912 0001606  51.2613 343.2296 15.08817833  1308,6917.948,95.439,540.924,538.702,0.0
52634.0,STARLINK-3974,PAYLOAD,2022-09-03 04:00:00,15.08858006,0.0001662,53.2177,271.0696,52.5168,260.5928,-0.0011801,-0.0001903,0.0,0 STARLINK-3974,1 52634U 22052AN  22246.16667824 -.00019030  00000-0 -11801-2 0  9995,2 52634  53.2177 271.0696 0001662  52.5168 260.5928 15.08858006 17607,6917.825,95.436,540.84,538.5409999999998,0.0
52634.0,STARLINK-3974,PAYLOAD,2022-09-03 14:00:01,15.08839366,0.0001813,53.2171,269.2003,45.3456,12.2714,0.0012737,0.00020041,0.0,0 STARLINK-3974,1 52634U 22052AN  22246.58334491  .00020041  00000-0  12737-2 0  9993,2 52634  53.2171 269.2003 0001813  45.3456  12.2714 15.08839366  1303,6917.882,95.438,541.002,538.493,0.0
52634.0,STARLINK-3974,PAYLOAD,2022-09-03 22:00:00,15.08826751,0.0001628,53.2171,267.7023,52.1636,17.0646,0.0027861,0.00044316,0.0,0 STARLINK-3974,1 52634U 22052AN  22246.91667824  .00044316  00000-0  27861-2 0  9994,2 52634  53.2171 267.7023 0001628  52.1636  17.0646 15.08826751  1309,6917.920999999999,95.438,540.9119999999998,538.66,0.0
52634.0,STARLINK-3974,PAYLOAD,2022-09-04 04:00:00,15.08882944,0.0001668,53.2173,266.5808,52.1493,295.7705,-0.0038376999999999,-0.00060921,0.0,0 STARLINK-3974,1 52634U 22052AN  22247.16667824 -.00060921  00000-0 -38377-2 0  9998,2 52634  53.2173 266.5808 0001668  52.1493 295.7705 15.08882944 17757,6917.749,95.435,540.768,538.46,0.0
52634.0,STARLINK-3974,PAYLOAD,2022-09-04 14:00:01,15.08828921,0.0001774,53.2166,264.7113,43.7356,48.7633,0.00093665,0.00014646,0.0,0 STARLINK-3974,1 52634U 22052AN  22247.58335648  .00014646  00000-0  93665-3 0  9993,2 52634  53.2166 264.7113 0001774  43.7356  48.7633 15.08828921  1305,6917.9140000000025,95.438,541.006,538.552,0.0
52634.0,STARLINK-3974,PAYLOAD,2022-09-04 16:00:00,15.08850246,0.0001737,53.2166,264.3368,45.9632,139.3661,-0.0014514,-0.00023319,0.0,0 STARLINK-3974,1 52634U 22052AN  22247.66667824 -.00023319  00000-0 -14514-2 0  9990,2 52634  53.2166 264.3368 0001737  45.9632 139.3661 15.08850246 17820,6917.849,95.437,540.9159999999998,538.512,0.0
52634.0,STARLINK-3974,PAYLOAD,2022-09-04 20:00:01,15.08827019,0.0001636,53.2168,263.5878,49.8177,321.3175,0.0013788,0.00021716,0.0,0 STARLINK-3974,1 52634U 22052AN  22247.83334491  .00021716  00000-0  13788-2 0  9999,2 52634  53.2168 263.5878 0001636  49.8177 321.3175 15.08827019  1305,6917.92,95.438,540.9169999999998,538.653,0.0
52634.0,STARLINK-3974,PAYLOAD,2022-09-05 04:00:00,15.08863408,0.0001706,53.2168,262.092,50.7358,331.9849,-0.0013667,-0.00021987,0.0,0 STARLINK-3974,1 52634U 22052AN  22248.16667824 -.00021987  00000-0 -13667-2 0  9993,2 52634  53.2168 262.0920 0001706  50.7358 331.9849 15.08863408 17907,6917.809,95.436,540.854,538.494,0.0
52634.0,STARLINK-3974,PAYLOAD,2022-09-05 14:00:01,15.08863964,0.0001808,53.2163,260.2223,43.5357,83.6967,-0.0025348,-0.0004043,0.0,0 STARLINK-3974,1 52634U 22052AN  22248.58334491 -.00040430  00000-0 -25348-2 0  9993,2 52634  53.2163 260.2223 0001808  43.5357  83.6967 15.08863964  1306,6917.807,95.436,540.923,538.4209999999998,0.0
52634.0,STARLINK-3974,PAYLOAD,2022-09-05 22:00:00,15.08820762,0.0001659,53.2163,258.7243,49.0676,89.7718,0.0002914,4.35e-05,0.0,0 STARLINK-3974,1 52634U 22052AN  22248.91667824  .00004350  00000-0  29140-3 0  9993,2 52634  53.2163 258.7243 0001659  49.0676  89.7718 15.08820762  1309,6917.939,95.439,540.952,538.6569999999998,0.0
52634.0,STARLINK-3974,PAYLOAD,2022-09-06 12:00:00,15.08794283,0.0001952,53.2163,256.1078,45.0383,24.0538,0.002813,0.00044709,0.0,0 STARLINK-3974,1 52634U 22052AN  22249.50001157  .00044709  00000-0  28130-2 0  9999,2 52634  53.2163 256.1078 0001952  45.0383  24.0538 15.08794283 18100,6918.02,95.44,541.236,538.535,0.0
52634.0,STARLINK-3974,PAYLOAD,2022-09-06 14:00:01,15.08818625,0.0001948,53.2162,255.7333,45.5154,116.4594,6.1012e-05,6.82e-06,0.0,0 STARLINK-3974,1 52634U 22052AN  22249.58334491  .00000682  00000-0  61012-4 0  9997,2 52634  53.2162 255.7333 0001948  45.5154 116.4594 15.08818625  1303,6917.946,95.439,541.158,538.4630000000002,0.0
52634.0,STARLINK-3974,PAYLOAD,2022-09-06 22:00:00,15.08798891,0.0001816,53.2163,254.2354,51.3377,122.2082,0.0025756999999999,0.00040896,0.0,0 STARLINK-3974,1 52634U 22052AN  22249.91667824  .00040896  00000-0  25757-2 0  9998,2 52634  53.2163 254.2354 0001816  51.3377 122.2082 15.08798891  1306,6918.005999999999,95.44,541.127,538.615,0.0
52634.0,STARLINK-3974,PAYLOAD,2022-09-07 04:00:00,15.08840178,0.0001936,53.2165,253.1142,50.6114,41.602,-0.0016895,-0.00027077,0.0,0 STARLINK-3974,1 52634U 22052AN  22250.16667824 -.00027077  00000-0 -16895-2 0  9998,2 52634  53.2165 253.1142 0001936  50.6114  41.6020 15.08840178 18204,6917.88,95.438,541.0840000000002,538.406,0.0
52634.0,STARLINK-3974,PAYLOAD,2022-09-07 14:00:01,15.08837866,0.0002032999999999,53.2163,251.2442,46.8256,149.8593,-0.00063002,-0.00010301,0.0,0 STARLINK-3974,1 52634U 22052AN  22250.58334491 -.00010301  00000-0 -63002-3 0  9990,2 52634  53.2163 251.2442 0002033  46.8256 149.8593 15.08837866  1306,6917.887,95.438,541.158,538.346,0.0
52634.0,STARLINK-3974,PAYLOAD,2022-09-07 20:00:01,15.08812549,0.0001885999999999,53.2166,250.1206,51.1465,64.2999,0.0024098,0.00038244,0.0,0 STARLINK-3974,1 52634U 22052AN  22250.83335648  .00038244  00000-0  24098-2 0  9998,2 52634  53.2166 250.1206 0001886  51.1465  64.2999 15.08812549 18300,6917.964,95.439,541.134,538.525,0.0
52634.0,STARLINK-3974,PAYLOAD,2022-09-07 22:00:00,15.08816509,0.0001905,53.2165,249.7463,52.6549,155.6221,0.0024642,0.00039123,0.0,0 STARLINK-3974,1 52634U 22052AN  22250.91667824  .00039123  00000-0  24642-2 0  9993,2 52634  53.2165 249.7463 0001905  52.6549 155.6221 15.08816509  1304,6917.9519999999975,95.439,541.135,538.499,0.0
52634.0,STARLINK-3974,PAYLOAD,2022-09-08 14:00:01,15.08859289,0.0002073,53.2165,246.7548,48.5134,182.9445,-0.0011712,-0.0001889,0.0,0 STARLINK-3974,1 52634U 22052AN  22251.58334491 -.00018890  00000-0 -11712-2 0  9992,2 52634  53.2165 246.7548 0002073  48.5134 182.9445 15.08859289  1309,6917.821,95.436,541.12,538.252,0.0
52634.0,STARLINK-3974,PAYLOAD,2022-09-08 20:00:01,15.08833028,0.0001916999999999,53.2167,245.6313,52.4185,97.7562,0.0023725,0.00037666,0.0,0 STARLINK-3974,1 52634U 22052AN  22251.83334491  .00037666  00000-0  23725-2 0  9997,2 52634  53.2167 245.6313 0001917  52.4185  97.7562 15.08833028 18455,6917.901999999999,95.438,541.0930000000002,538.441,0.0
